$$SOE
2460721.500000000, A.D. 2025-Feb-15 00:00:00.0000, -3.344437006994262E+08, -2.441807698495645E+08, 1.764748652773595E+07,
2460728.500000000, A.D. 2025-Feb-22 00:00:00.0000, -3.278624696373456E+08, -2.515790547980360E+08, 1.797913095061423E+07,
2460735.500000000, A.D. 2025-Mar-01 00:00:00.0000, -3.210563718973132E+08, -2.588048467833390E+08, 1.829844394770490E+07,
2460742.500000000, A.D. 2025-Mar-08 00:00:00.0000, -3.140286814650374E+08, -2.658520677334277E+08, 1.860512687938429E+07,
2460749.500000000, A.D. 2025-Mar-15 00:00:00.0000, -3.067827976401519E+08, -2.727146259946933E+08, 1.889888198702425E+07,
2460756.500000000, A.D. 2025-Mar-22 00:00:00.0000, -2.993222521760642E+08, -2.793864154129190E+08, 1.917941266844928E+07,
2460763.500000000, A.D. 2025-Mar-29 00:00:00.0000, -2.916507153167172E+08, -2.858613168806427E+08, 1.944642345933011E+07,
2460770.500000000, A.D. 2025-Apr-05 00:00:00.0000, -2.837720004131003E+08, -2.921331992306675E+08, 1.969961994830264E+07,
2460777.500000000, A.D. 2025-Apr-12 00:00:00.0000, -2.756900690523519E+08, -2.981959193884215E+08, 1.993870881214285E+07,
2460784.500000000, A.D. 2025-Apr-19 00:00:00.0000, -2.674090368916084E+08, -3.040433226809878E+08, 2.016339791712624E+07,
2460791.500000000, A.D. 2025-Apr-26 00:00:00.0000, -2.589331799278837E+08, -3.096692435234904E+08, 2.037339644581461E+07,
2460798.500000000, A.D. 2025-May-03 00:00:00.0000, -2.502669410915202E+08, -3.150675064838704E+08, 2.056841504107332E+07,
2460805.500000000, A.D. 2025-May-10 00:00:00.0000, -2.414149371348668E+08, -3.202319277412661E+08, 2.074816596617098E+07,
2460812.500000000, A.D. 2025-May-17 00:00:00.0000, -2.323819657798535E+08, -3.251563170070581E+08, 2.091236327527429E+07,
2460819.500000000, A.D. 2025-May-24 00:00:00.0000, -2.231730129519229E+08, -3.298344799944362E+08, 2.106072297537020E+07,
2460826.500000000, A.D. 2025-May-31 00:00:00.0000, -2.137932596842986E+08, -3.342602211587434E+08, 2.119296316854517E+07,
2460833.500000000, A.D. 2025-Jun-07 00:00:00.0000, -2.042480890939409E+08, -3.384273455378992E+08, 2.130880431192173E+07,
2460840.500000000, A.D. 2025-Jun-14 00:00:00.0000, -1.945430957911787E+08, -3.423296603951814E+08, 2.140796975969823E+07,
2460847.500000000, A.D. 2025-Jun-21 00:00:00.0000, -1.846840965011765E+08, -3.459609799750640E+08, 2.149018621047582E+07,
2460854.500000000, A.D. 2025-Jun-28 00:00:00.0000, -1.746771387634830E+08, -3.493151316513279E+08, 2.155518391973165E+07,
2460861.500000000, A.D. 2025-Jul-05 00:00:00.0000, -1.645285092193774E+08, -3.523859613563637E+08, 2.160269699562807E+07,
2460868.500000000, A.D. 2025-Jul-12 00:00:00.0000, -1.542447426674598E+08, -3.551673391431616E+08, 2.163246382434577E+07,
2460875.500000000, A.D. 2025-Jul-19 00:00:00.0000, -1.438326316830822E+08, -3.576531655030802E+08, 2.164422756317025E+07,
2460882.500000000, A.D. 2025-Jul-26 00:00:00.0000, -1.332992365719878E+08, -3.598373785468982E+08, 2.163773667994656E+07,
2460889.500000000, A.D. 2025-Aug-02 00:00:00.0000, -1.226518955682686E+08, -3.617139620825501E+08, 2.161274553728761E+07,
2460896.500000000, A.D. 2025-Aug-09 00:00:00.0000, -1.118982352244942E+08, -3.632769546632761E+08, 2.156901502119631E+07,
2460903.500000000, A.D. 2025-Aug-16 00:00:00.0000, -1.010461808837250E+08, -3.645204597313439E+08, 2.150631320520860E+07,
2460910.500000000, A.D. 2025-Aug-23 00:00:00.0000, -9.010396690151088E+07, -3.654386569048699E+08, 2.142441602800561E+07,
2460917.500000000, A.D. 2025-Aug-30 00:00:00.0000, -7.908014624272385E+07, -3.660258137597522E+08, 2.132310801611993E+07,
2460924.500000000, A.D. 2025-Sep-06 00:00:00.0000, -6.798360081734788E+07, -3.662762971737414E+08, 2.120218326689883E+07,
2460931.500000000, A.D. 2025-Sep-13 00:00:00.0000, -5.682355416252436E+07, -3.661845867835482E+08, 2.106144664511032E+07,
2460938.500000000, A.D. 2025-Sep-20 00:00:00.0000, -4.560958312406385E+07, -3.657452922705603E+08, 2.090071476164651E+07,
2460945.500000000, A.D. 2025-Sep-27 00:00:00.0000, -3.435162739633212E+07, -3.649531714377488E+08, 2.071981689492975E+07,
2460952.500000000, A.D. 2025-Oct-04 00:00:00.0000, -2.305999884446063E+07, -3.638031486117764E+08, 2.051859608739345E+07,
2460959.500000000, A.D. 2025-Oct-11 00:00:00.0000, -1.174539087761500E+07, -3.622903343843213E+08, 2.029691037718228E+07,
2460966.500000000, A.D. 2025-Oct-18 00:00:00.0000, -4.188874716860218E+05, -3.604100470352866E+08, 2.005463411910234E+07,
2460973.500000000, A.D. 2025-Oct-25 00:00:00.0000, 1.090802843031845E+07, -3.581578356908150E+08, 1.979165938472843E+07,
2460980.500000000, A.D. 2025-Nov-01 00:00:00.0000, 2.222346732780867E+07, -3.555295052592766E+08, 1.950789744037724E+07,
2460987.500000000, A.D. 2025-Nov-08 00:00:00.0000, 3.351512658161836E+07, -3.525211432299902E+08, 1.920328029783402E+07,
2460994.500000000, A.D. 2025-Nov-15 00:00:00.0000, 4.477028517149649E+07, -3.491291484397566E+08, 1.887776231986172E+07,
2461001.500000000, A.D. 2025-Nov-22 00:00:00.0000, 5.597580039208443E+07, -3.453502616230848E+08, 1.853132186129306E+07,
2461008.500000000, A.D. 2025-Nov-29 00:00:00.0000, 6.711810654864581E+07, -3.411815966327403E+08, 1.816396305115880E+07,
2461015.500000000, A.D. 2025-Dec-06 00:00:00.0000, 7.818321360753275E+07, -3.366206724699141E+08, 1.777571791078965E+07,
2461022.500000000, A.D. 2025-Dec-13 00:00:00.0000, 8.915670648675415E+07, -3.316654494763420E+08, 1.736664848822075E+07,
2461029.500000000, A.D. 2025-Dec-20 00:00:00.0000, 1.000237487507626E+08, -3.263143686270328E+08, 1.693684876663952E+07,
2461036.500000000, A.D. 2025-Dec-27 00:00:00.0000, 1.107690899218969E+08, -3.205663912708547E+08, 1.648644665074271E+07,
2461043.500000000, A.D. 2026-Jan-03 00:00:00.0000, 1.213770752474807E+08, -3.144210398415911E+08, 1.601560610634385E+07,
2461050.500000000, A.D. 2026-Jan-10 00:00:00.0000, 1.318316583402301E+08, -3.078784400872443E+08, 1.552452937693873E+07,
2461057.500000000, A.D. 2026-Jan-17 00:00:00.0000, 1.421164172399378E+08, -3.009393647333950E+08, 1.501345923442638E+07,
2461064.500000000, A.D. 2026-Jan-24 00:00:00.0000, 1.522145742969214E+08, -2.936052783321639E+08, 1.448268124101861E+07,
2461071.500000000, A.D. 2026-Jan-31 00:00:00.0000, 1.621090202303980E+08, -2.858783830274199E+08, 1.393252599866614E+07,
2461078.500000000, A.D. 2026-Feb-07 00:00:00.0000, 1.717823427562229E+08, -2.777616649690326E+08, 1.336337135289961E+07,
2461085.500000000, A.D. 2026-Feb-14 00:00:00.0000, 1.812168603620796E+08, -2.692589410211565E+08, 1.277564450311975E+07,
2461092.500000000, A.D. 2026-Feb-21 00:00:00.0000, 1.903946619193061E+08, -2.603749047660509E+08, 1.216982400594059E+07,
2461099.500000000, A.D. 2026-Feb-28 00:00:00.0000, 1.992976513123535E+08, -2.511151701660951E+08, 1.154644183666798E+07,
2461106.500000000, A.D. 2026-Mar-07 00:00:00.0000, 2.079075952498953E+08, -2.414863142792311E+08, 1.090608550480711E+07,
2461113.500000000, A.D. 2026-Mar-14 00:00:00.0000, 2.162061772074048E+08, -2.314959207359937E+08, 1.024939974080789E+07,
2461120.500000000, A.D. 2026-Mar-21 00:00:00.0000, 2.241750594014344E+08, -2.211526203963218E+08, 9.577087787687629E+06,
2461127.500000000, A.D. 2026-Mar-28 00:00:00.0000, 2.317959508307709E+08, -2.104661274212386E+08, 8.889912524626657E+06,
2461134.500000000, A.D. 2026-Apr-04 00:00:00.0000, 2.390506807368559E+08, -1.994472709394725E+08, 8.188697356022045E+06,
2461141.500000000, A.D. 2026-Apr-11 00:00:00.0000, 2.459212776126649E+08, -1.881080218422940E+08, 7.474326767396547E+06,
2461148.500000000, A.D. 2026-Apr-18 00:00:00.0000, 2.523900536619867E+08, -1.764615138580016E+08, 6.747746488796949E+06,
2461155.500000000, A.D. 2026-Apr-25 00:00:00.0000, 2.584396943735544E+08, -1.645220580230209E+08, 6.009963219313927E+06,
2461162.500000000, A.D. 2026-May-02 00:00:00.0000, 2.640533527241838E+08, -1.523051497158856E+08, 5.262043865811169E+06,
2461169.500000000, A.D. 2026-May-09 00:00:00.0000, 2.692147474740686E+08, -1.398274674802404E+08, 4.505114239730872E+06,
2461176.500000000, A.D. 2026-May-16 00:00:00.0000, 2.739082651249043E+08, -1.271068627010593E+08, 3.740357153528102E+06,
2461183.500000000, A.D. 2026-May-23 00:00:00.0000, 2.781190646489366E+08, -1.141623383880321E+08, 2.969009967879757E+06,
2461190.500000000, A.D. 2026-May-30 00:00:00.0000, 2.818331818301402E+08, -1.010140161328298E+08, 2.192361786721013E+06,
2461197.500000000, A.D. 2026-Jun-06 00:00:00.0000, 2.850376316780033E+08, -8.768309402789259E+07, 1.411750048705086E+06,
2461204.500000000, A.D. 2026-Jun-13 00:00:00.0000, 2.877205112357529E+08, -7.419179500689831E+07, 6.285561912839934E+05,
2461211.500000000, A.D. 2026-Jun-20 00:00:00.0000, 2.898711008490846E+08, -6.056330251818213E+07, -1.557993192167766E+05,
2461218.500000000, A.D. 2026-Jun-27 00:00:00.0000, 2.914799606993191E+08, -4.682168391368325E+07, -9.398624428023621E+05,
2461225.500000000, A.D. 2026-Jul-04 00:00:00.0000, 2.925390210656856E+08, -3.299180259168331E+07, -1.722151536418455E+06,
2461232.500000000, A.D. 2026-Jul-11 00:00:00.0000, 2.930416650345678E+08, -1.909921952044519E+07, -2.501163828040601E+06,
2461239.500000000, A.D. 2026-Jul-18 00:00:00.0000, 2.929828022522640E+08, -5.170084849916724E+06, -3.275382341867139E+06,
2461246.500000000, A.D. 2026-Jul-25 00:00:00.0000, 2.923589323322883E+08, 8.768979422309669E+06, -4.043283205605888E+06,
2461253.500000000, A.D. 2026-Aug-01 00:00:00.0000, 2.911681966781895E+08, 2.269100448714691E+07, -4.803343266041524E+06,
2461260.500000000, A.D. 2026-Aug-08 00:00:00.0000, 2.894104178157915E+08, 3.656880602025615E+07, -5.554047944200547E+06,
2461267.500000000, A.D. 2026-Aug-15 00:00:00.0000, 2.870871257241392E+08, 5.037512059943333E+07, -6.293899233056575E+06,
2461274.500000000, A.D. 2026-Aug-22 00:00:00.0000, 2.842015697103910E+08, 6.408274673929417E+07, -7.021423563102126E+06,
2461281.500000000, A.D. 2026-Aug-29 00:00:00.0000, 2.807587131317666E+08, 7.766468734456773E+07, -7.735179329031043E+06,
2461288.500000000, A.D. 2026-Sep-05 00:00:00.0000, 2.767652129730008E+08, 9.109428881277183E+07, -8.433764401279505E+06,
$$EOE